#aV2015  3  9  0  0  0.00000000     288 DD+AD WGS84 FIT  NGA
## 1835  86400.00000000   300.00000000 57090 0.0000000000000
+   31     1  2  3  4  5  6  7  8  9 10 11 12 13 14 15 16 17
+         18 19 20 21 22 23 24 25 27 28 29 30 31 32  0  0  0
+          0  0  0  0  0  0  0  0  0  0  0  0  0  0  0  0  0
+          0  0  0  0  0  0  0  0  0  0  0  0  0  0  0  0  0
+          0  0  0  0  0  0  0  0  0  0  0  0  0  0  0  0  0
++         2  2  2  2  2  2  2  2  2  2  2  2  2  2  2  2  2
++         2  2  2  2  2  2  2  2  2  2  2  2  2  2  0  0  0
++         0  0  0  0  0  0  0  0  0  0  0  0  0  0  0  0  0
++         0  0  0  0  0  0  0  0  0  0  0  0  0  0  0  0  0
++         0  0  0  0  0  0  0  0  0  0  0  0  0  0  0  0  0
%c cc cc ccc ccc cccc cccc cccc cccc ccccc ccccc ccccc ccccc
%c cc cc ccc ccc cccc cccc cccc cccc ccccc ccccc ccccc ccccc
%f  0.0000000  0.000000000  0.00000000000  0.000000000000000
%f  0.0000000  0.000000000  0.00000000000  0.000000000000000
%i    0    0    0    0      0      0      0      0         0
%i    0    0    0    0      0      0      0      0         0
/*      NGA, ST. LOUIS,MO.                                  
/*   EPHEMERIS COMPUTED FROM  1 DAYS OF DATA                
/*   EPOCHA SMOOTHER                                       
/* CCCCCCCCCCCCCCCCCCCCCCCCCCCCCCCCCCCCCCCCCCCCCCCCCCCCCCCCC
*  2015  3  9 21 35  0.00000000
P  1 -14619.141725 -13259.203925 -17905.764898     -8.153605                    
V  1  22616.305415   -301.509281 -18118.555148      0.004353                    
P  2  -9531.576141  14618.388843  20253.674007    552.562916                    
V  2 -25112.945877  -1787.082271 -11183.852223      0.023132                    
P  3 -13574.243957 -22689.012126   2283.391438    247.519495                    
V  3   1220.222180  -3894.109994 -31584.094477      0.176997                    
P  4  -4085.326183 -15738.768463 -21350.101542     -8.716180                    
V  4  26422.793295    399.840557  -5167.115880     -0.007397                    
P  5   -454.575836  21950.665148  14769.406413   -269.041985                    
V  5 -11042.408242 -15603.851791  22945.827737      0.049756                    
P  6 -22988.180146   6917.413646  11348.280345    103.853448                    
V  6 -14299.534097  -3012.984401 -27134.527111      0.106945                    
P  7 -24580.593431  -7131.062195   7864.771295    446.399811                    
V  7   9865.481127  -1330.659035  29648.330113      0.030197                    
P  8  12172.010174 -11464.500610  20662.553598     18.336883                    
V  8  25317.343980   5445.623068 -12610.457369      0.002924                    
P  9 -14433.641775  -5582.697012  21575.995761   -108.476158                    
V  9  14419.186224 -23338.403686   3593.496512     -0.101912                    
P 10 -14708.954016   5050.234921  21170.777113   -166.520722                    
V 10 -12495.453305 -24868.762870  -2282.025274     -0.014180                    
P 11  -8475.262264 -14947.812395 -20794.346840   -563.144090                    
V 11  24285.074178  -7933.827584  -4160.991252     -0.026403                    
P 12  10811.536761  24389.767742   -651.926329    275.323196                    
V 12  -1851.058451     68.231442 -32215.531953      0.030291                    
P 13 -11699.076670  22719.157236  -7618.725238    -95.146394                    
V 13  -7565.650148   6004.634365  30002.625298     -0.034799                    
P 14  19826.228878 -12791.043700 -11813.254325     80.435513                    
V 14  -7366.616036  13741.988933 -26859.552331     -0.035144                    
P 15   1212.129974  21249.939144 -15775.040756   -236.722577                    
V 15 -12340.798053  16063.854177  21124.094390     -0.022143                    
P 16   1501.712480 -21451.336544  15266.550490   -149.595765                    
V 16   9382.749335  17281.499154  23627.446953      0.034295                    
P 17 -19407.315040  11059.647994 -13912.325119   -160.020147                    
V 17   8733.028107 -16141.905505 -24708.715469     -0.021253                    
P 18  18744.757149   8972.628371 -16228.501027    385.118429                    
V 18   8082.010694  20072.730119  19541.675940      0.027962                    
P 19   4707.368533 -21849.914618 -14160.238751   -503.340350                    
V 19  12744.865584 -12695.272206  24576.614101     -0.013445                    
P 20 -15676.206987   4367.121554  20848.809067    297.872946                    
V 20 -13535.083939 -23333.133961  -5150.302110      0.040812                    
P 21  26134.580021   4242.201379   4619.805715   -424.656113                    
V 21  -5082.677527   3027.821027  30180.073463     -0.039551                    
P 22  15505.320019  -4510.714232 -20880.579267    326.739402                    
V 22  12506.614835  24118.065304   3860.244448      0.041794                    
P 23  -7423.409278 -15392.102862  20360.335612    -93.980520                    
V 23  15037.608359 -20890.353351 -10804.198884     -0.025882                    
P 24  11597.778559  14098.123564 -19372.930003    -44.707402                    
V 24 -24534.869020    518.993953 -14190.976383     -0.006684                    
P 25  17184.272062  17114.471090  10933.461841     -9.620637                    
V 25   4760.555810  13223.873375 -27803.530528     -0.030508                    
P 27  11743.710169 -23450.515449  -3846.957938     56.741125                    
V 27   4894.658616  -2678.698901  31439.110173      0.026620                    
P 28 -15701.777261  -1903.209624 -20737.202217    424.803254                    
V 28 -10411.808224 -25661.161923   9858.468473      0.026720                    
P 29  11322.364005   9884.131867  21929.869272    596.796284                    
V 29 -16260.659980  22468.978850  -1691.995343      0.024811                    
P 30 -26403.061996  -1126.658008  -2938.025359    -80.981894                    
V 30  -3341.209614  -3306.265478  31340.937190      0.023329                    
P 31  21393.833067  -7864.075163  14053.419662    321.540702                    
V 31  17279.544496   2889.639395 -24594.728809     -0.009001                    
P 32  -2207.491164 -24639.157387 -10378.906750   -205.305335                    
V 32   7255.509254  11065.904302 -27300.214197      0.093664                    
EOF
